CHUANGXIN 1-02 (CX-1-02)
1 33434U 08056B   26161.30126416 -.00000042  00000+0  71457-6 0  9991
2 33434  98.6141 187.6369 0014628 155.9614 204.2254 14.30151513917639
STARS (KUKAI)           
1 33498U 09002G   26161.12780326  .00003784  00000+0  34535-3 0  9997
2 33498  98.1539 108.1482 0008310 181.5219 178.5977 14.95700117937421
KKS-1 (KISEKI)          
1 33499U 09002H   26161.17261176  .00001194  00000+0  15343-3 0  9999
2 33499  98.1193  83.5038 0006940 322.3486  37.7241 14.83105969935158
UK-DMC 2                
1 35683U 09041C   26159.88757111  .00001104  00000+0  16742-3 0  9998
2 35683  97.8828 295.0575 0001296  72.8745 287.2607 14.76019080905342
OCEANSAT-2              
1 35931U 09051A   26161.26542706  .00000052  00000+0  61037-4 0  9991
2 35931  98.2324 148.8073 0014731 257.1893 102.7628 13.99664499878361
SWISSCUBE               
1 35932U 09051B   26160.71112973  .00000922  00000+0  19187-3 0  9994
2 35932  98.4042  68.4691 0005562 230.1201 129.9511 14.62467613888060
BEESAT-1                
1 35933U 09051C   26160.99049480  .00000728  00000+0  15600-3 0  9997
2 35933  98.3972  68.4038 0003926 245.5037 114.5754 14.61708937888139
ITUPSAT1                
1 35935U 09051E   26160.97508610  .00000673  00000+0  14898-3 0  9999
2 35935  98.4056  67.5878 0006124 261.1078  98.9428 14.60430038887684
DMSP 5D-3 F18 (USA 210) 
1 35951U 09057A   26161.28161661  .00000233  00000+0  14380-3 0  9997
2 35951  98.9035 142.0658 0009850 271.5337  88.4708 14.14892864858615
PROBA-2                 
1 36037U 09059B   26161.22536167  .00000166  00000+0  49288-4 0  9997
2 36037  98.2450 344.6748 0012171 305.8171  54.1895 14.54859402880518
YAOGAN-7                
1 36110U 09069A   26160.91262885  .00000437  00000+0  67592-4 0  9997
2 36110  98.0082  46.8244 0025910  64.1879 296.2000 14.78002486888553
XIWANG-1 (HOPE-1)       
1 36122U 09072B   26161.25196369 -.00000233  00000+0 -49508-3 0  9997
2 36122 100.4021 115.1947 0006803 249.1811 110.8574 13.16437827792090
COSMOS 2463             
1 36519U 10017A   26161.18769227  .00000037  00000+0  24081-4 0  9999
2 36519  82.9607 254.8480 0037004 147.7454 274.9576 13.71665276806979
CARTOSAT-2B             
1 36795U 10035A   26161.30200174  .00000651  00000+0  95911-4 0  9992
2 36795  97.9955 211.8955 0010649 207.0849 152.9808 14.78652808858831
TISAT 1                 
1 36799U 10035E   26161.12641361  .00020261  00000+0  66907-3 0  9994
2 36799  98.0700 107.0500 0000399 178.3205 181.8036 15.31440689866626
YAOGAN-10               
1 36834U 10038A   26161.34417918  .00001146  00000+0  13962-3 0  9994
2 36834  97.8983 184.8032 0001633  89.4904 326.6440 14.85326717856191
SHIJIAN-6 04B (SJ-6 04B)
1 37180U 10051B   26161.28234038  .00000827  00000+0  72746-4 0  9998
2 37180  97.8686 166.6222 0008947 336.2069  23.8739 14.99298063854647
FENGYUN 3B              
1 37214U 10059A   26161.30868137 -.00000349  00000+0 -15731-3 0  9991
2 37214  98.9625 207.2940 0021510 203.7829 248.1572 14.14838721806453
O/OREOS (USA 219)       
1 37224U 10062C   26161.16427526  .00002115  00000+0  20540-3 0  9998
2 37224  71.9705  96.2464 0012400  78.4284 281.8278 14.93714320115591
RESOURCESAT-2           
1 37387U 11015A   26161.26189154  .00000040  00000+0  38419-4 0  9990
2 37387  98.7644 228.7513 0010122 277.8570  82.1458 14.21604904785197
YOUTHSAT                
1 37388U 11015B   26161.19917544  .00000164  00000+0  86517-4 0  9994
2 37388  98.3678 135.5685 0014660   7.7100   7.7512 14.25627452786648
APRIZESAT 6             
1 37793U 11044F   26161.02436708  .00000643  00000+0  97848-4 0  9997
2 37793  98.2371  71.3776 0044396 108.2546 266.6397 14.76905237796098
JUGNU                   
1 37839U 11058B   26161.25711562  .00000399  00000+0  69141-4 0  9995
2 37839  19.9621 350.5295 0018561 359.9630 156.5973 14.13774890758049
SRMSAT                  
1 37841U 11058D   26161.14545056  .00000359  00000+0  51119-4 0  9991
2 37841  19.9712 102.0891 0011931 126.5108 263.2638 14.11574082756824
